$$SOE
2460147.500000000, A.D. 2023-Jul-22 00:00:00.0000, 9.492044265074843E+07, -4.067160834812080E+08, 2.315401559650797E+07,
2460154.500000000, A.D. 2023-Jul-29 00:00:00.0000, 1.055920453457018E+08, -4.048077708587614E+08, 2.328925916362366E+07,
2460161.500000000, A.D. 2023-Aug-05 00:00:00.0000, 1.161939284004074E+08, -4.026323121758151E+08, 2.340913402281338E+07,
2460168.500000000, A.D. 2023-Aug-12 00:00:00.0000, 1.267194847839624E+08, -4.001925011448736E+08, 2.351364007877001E+07,
2460175.500000000, A.D. 2023-Aug-19 00:00:00.0000, 1.371622272299066E+08, -3.974912842492089E+08, 2.360278771866657E+07,
2460182.500000000, A.D. 2023-Aug-26 00:00:00.0000, 1.475157909271613E+08, -3.945317552927090E+08, 2.367659759852454E+07,
2460189.500000000, A.D. 2023-Sep-02 00:00:00.0000, 1.577739359521807E+08, -3.913171500479388E+08, 2.373510042123279E+07,
2460196.500000000, A.D. 2023-Sep-09 00:00:00.0000, 1.679305494850029E+08, -3.878508410536433E+08, 2.377833670023942E+07,
2460203.500000000, A.D. 2023-Sep-16 00:00:00.0000, 1.779796479848226E+08, -3.841363326282905E+08, 2.380635648939258E+07,
2460210.500000000, A.D. 2023-Sep-23 00:00:00.0000, 1.879153797494569E+08, -3.801772558212922E+08, 2.381921906496698E+07,
2460217.500000000, A.D. 2023-Sep-30 00:00:00.0000, 1.977320275269539E+08, -3.759773621193356E+08, 2.381699268915737E+07,
2460224.500000000, A.D. 2023-Oct-07 00:00:00.0000, 2.074240088327750E+08, -3.715405164572221E+08, 2.379975462713838E+07,
2460231.500000000, A.D. 2023-Oct-14 00:00:00.0000, 2.169858750198949E+08, -3.668706928505520E+08, 2.376759105178764E+07,
2460238.500000000, A.D. 2023-Oct-21 00:00:00.0000, 2.264123123394654E+08, -3.619719710517685E+08, 2.372059667132092E+07,
2460245.500000000, A.D. 2023-Oct-28 00:00:00.0000, 2.356981435771245E+08, -3.568485319750005E+08, 2.365887439597462E+07,
2460252.500000000, A.D. 2023-Nov-04 00:00:00.0000, 2.448383290236409E+08, -3.515046526652945E+08, 2.358253509623420E+07,
2460259.500000000, A.D. 2023-Nov-11 00:00:00.0000, 2.538279669658388E+08, -3.459447014163600E+08, 2.349169738799828E+07,
2460266.500000000, A.D. 2023-Nov-18 00:00:00.0000, 2.626622939255761E+08, -3.401731331047857E+08, 2.338648741993625E+07,
2460273.500000000, A.D. 2023-Nov-25 00:00:00.0000, 2.713366847276168E+08, -3.341944847213436E+08, 2.326703865876994E+07,
2460280.500000000, A.D. 2023-Dec-02 00:00:00.0000, 2.798466524321359E+08, -3.280133711130312E+08, 2.313349166937795E+07,
2460287.500000000, A.D. 2023-Dec-09 00:00:00.0000, 2.881878482170684E+08, -3.216344809961477E+08, 2.298599387795489E+07,
2460294.500000000, A.D. 2023-Dec-16 00:00:00.0000, 2.963560615059060E+08, -3.150625732285931E+08, 2.282469929305123E+07,
2460301.500000000, A.D. 2023-Dec-23 00:00:00.0000, 3.043472206983089E+08, -3.083024726554591E+08, 2.264976820912229E+07,
2460308.500000000, A.D. 2023-Dec-30 00:00:00.0000, 3.121573931716537E+08, -3.013590644812719E+08, 2.246136710173918E+07,
2460315.500000000, A.D. 2024-Jan-06 00:00:00.0000, 3.197827827873064E+08, -2.942372895310953E+08, 2.225966868411900E+07,
2460322.500000000, A.D. 2024-Jan-13 00:00:00.0000, 3.272197280798901E+08, -2.869421422062714E+08, 2.204485168585740E+07,
2460329.500000000, A.D. 2024-Jan-20 00:00:00.0000, 3.344647023601421E+08, -2.794786680489817E+08, 2.181710049348381E+07,
2460336.500000000, A.D. 2024-Jan-27 00:00:00.0000, 3.415143137100893E+08, -2.718519602633075E+08, 2.157660489224157E+07,
2460343.500000000, A.D. 2024-Feb-03 00:00:00.0000, 3.483653044489247E+08, -2.640671561411739E+08, 2.132355987083757E+07,
2460350.500000000, A.D. 2024-Feb-10 00:00:00.0000, 3.550145503532711E+08, -2.561294336835311E+08, 2.105816543985499E+07,
2460357.500000000, A.D. 2024-Feb-17 00:00:00.0000, 3.614590597767169E+08, -2.480440084078108E+08, 2.078062645170225E+07,
2460364.500000000, A.D. 2024-Feb-24 00:00:00.0000, 3.676959727105728E+08, -2.398161303257659E+08, 2.049115241999146E+07,
2460371.500000000, A.D. 2024-Mar-02 00:00:00.0000, 3.737225598207261E+08, -2.314510811230469E+08, 2.018995733295752E+07,
2460378.500000000, A.D. 2024-Mar-09 00:00:00.0000, 3.795362216041921E+08, -2.229541716017166E+08, 1.987725944290167E+07,
2460385.500000000, A.D. 2024-Mar-16 00:00:00.0000, 3.851344880654194E+08, -2.143307391860152E+08, 1.955328101140554E+07,
2460392.500000000, A.D. 2024-Mar-23 00:00:00.0000, 3.905150188145919E+08, -2.055861443804316E+08, 1.921824811065461E+07,
2460399.500000000, A.D. 2024-Mar-30 00:00:00.0000, 3.956756013521200E+08, -1.967257662068408E+08, 1.887239068454040E+07,
2460406.500000000, A.D. 2024-Apr-06 00:00:00.0000, 4.006141477970548E+08, -1.877549999874520E+08, 1.851594257048165E+07,
2460413.500000000, A.D. 2024-Apr-13 00:00:00.0000, 4.053286936107489E+08, -1.786792566327664E+08, 1.814914122382358E+07,
2460420.500000000, A.D. 2024-Apr-20 00:00:00.0000, 4.098173973664147E+08, -1.695039607524590E+08, 1.777222745051767E+07,
2460427.500000000, A.D. 2024-Apr-27 00:00:00.0000, 4.140785400526930E+08, -1.602345481462901E+08, 1.738544524144305E+07,
2460434.500000000, A.D. 2024-May-04 00:00:00.0000, 4.181105240050237E+08, -1.508764633754574E+08, 1.698904164317440E+07,
2460441.500000000, A.D. 2024-May-11 00:00:00.0000, 4.219118717086534E+08, -1.414351575142868E+08, 1.658326663544987E+07,
2460448.500000000, A.D. 2024-May-18 00:00:00.0000, 4.254812245596166E+08, -1.319160860591609E+08, 1.616837300994211E+07,
2460455.500000000, A.D. 2024-May-25 00:00:00.0000, 4.288173416115673E+08, -1.223247070001012E+08, 1.574461624769475E+07,
2460462.500000000, A.D. 2024-Jun-01 00:00:00.0000, 4.319190983704497E+08, -1.126664791103068E+08, 1.531225438510653E+07,
2460469.500000000, A.D. 2024-Jun-08 00:00:00.0000, 4.347854858843717E+08, -1.029468604738443E+08, 1.487154784388953E+07,
2460476.500000000, A.D. 2024-Jun-15 00:00:00.0000, 4.374156105287161E+08, -9.317130670228025E+07, 1.442275923279380E+07,
2460483.500000000, A.D. 2024-Jun-22 00:00:00.0000, 4.398086934838837E+08, -8.334526766044571E+07, 1.396615330964097E+07,
2460490.500000000, A.D. 2024-Jun-29 00:00:00.0000, 4.419640677883865E+08, -7.347418451970439E+07, 1.350199714996365E+07,
2460497.500000000, A.D. 2024-Jul-06 00:00:00.0000, 4.438811756136873E+08, -6.356348960830209E+07, 1.303056007765307E+07,
2460504.500000000, A.D. 2024-Jul-13 00:00:00.0000, 4.455595677097647E+08, -5.361860623122919E+07, 1.255211340937450E+07,
2460511.500000000, A.D. 2024-Jul-20 00:00:00.0000, 4.469989030371003E+08, -4.364494730712987E+07, 1.206693028875035E+07,
2460518.500000000, A.D. 2024-Jul-27 00:00:00.0000, 4.481989479310756E+08, -3.364791377868363E+07, 1.157528559205784E+07,
2460525.500000000, A.D. 2024-Aug-03 00:00:00.0000, 4.491595750733323E+08, -2.363289316855615E+07, 1.107745584962269E+07,
2460532.500000000, A.D. 2024-Aug-10 00:00:00.0000, 4.498807624372239E+08, -1.360525828239959E+07, 1.057371916709879E+07,
2460539.500000000, A.D. 2024-Aug-17 00:00:00.0000, 4.503625922559955E+08, -3.570366034091139E+06, 1.006435514377856E+07,
2460546.500000000, A.D. 2024-Aug-24 00:00:00.0000, 4.506052500428956E+08, 6.466443587564412E+06, 9.549644783235677E+06,
2460553.500000000, A.D. 2024-Aug-31 00:00:00.0000, 4.506090237801121E+08, 1.649984835180585E+07, 9.029870380288132E+06,
2460560.500000000, A.D. 2024-Sep-07 00:00:00.0000, 4.503743036422672E+08, 2.652454454703671E+07, 8.505315360554395E+06,
2460567.500000000, A.D. 2024-Sep-14 00:00:00.0000, 4.499015823384265E+08, 3.653524866880225E+07, 7.976264145621225E+06,
2460574.500000000, A.D. 2024-Sep-21 00:00:00.0000, 4.491914540441324E+08, 4.652670045140009E+07, 7.443002263486931E+06,
2460581.500000000, A.D. 2024-Sep-28 00:00:00.0000, 4.482446114386542E+08, 5.649366401783857E+07, 6.905816485168397E+06,
2460588.500000000, A.D. 2024-Oct-05 00:00:00.0000, 4.470618445165475E+08, 6.643092715074974E+07, 6.364994650508787E+06,
2460595.500000000, A.D. 2024-Oct-12 00:00:00.0000, 4.456440408103924E+08, 7.633330166729513E+07, 5.820825459392089E+06,
2460602.500000000, A.D. 2024-Oct-19 00:00:00.0000, 4.439921852730962E+08, 8.619562463120762E+07, 5.273598366725046E+06,
2460609.500000000, A.D. 2024-Oct-26 00:00:00.0000, 4.421073597878711E+08, 9.601275960433254E+07, 4.723603518626422E+06,
2460616.500000000, A.D. 2024-Nov-02 00:00:00.0000, 4.399907425641360E+08, 1.057795977928048E+08, 4.171131694061302E+06,
2460623.500000000, A.D. 2024-Nov-09 00:00:00.0000, 4.376436075170926E+08, 1.154910591118298E+08, 3.616474244728923E+06,
2460630.500000000, A.D. 2024-Nov-16 00:00:00.0000, 4.350673236581598E+08, 1.251420931722651E+08, 3.059923030838080E+06,
2460637.500000000, A.D. 2024-Nov-23 00:00:00.0000, 4.322633545444962E+08, 1.347276801416066E+08, 2.501770344368316E+06,
2460644.500000000, A.D. 2024-Nov-30 00:00:00.0000, 4.292332579970117E+08, 1.442428314384319E+08, 1.942308797138117E+06,
2460651.500000000, A.D. 2024-Dec-07 00:00:00.0000, 4.259786865059380E+08, 1.536825906812665E+08, 1.381831169321828E+06,
2460658.500000000, A.D. 2024-Dec-14 00:00:00.0000, 4.225013876318526E+08, 1.630420361162813E+08, 8.206303813368678E+05,
2460665.500000000, A.D. 2024-Dec-21 00:00:00.0000, 4.188032020805812E+08, 1.723162832862485E+08, 2.589997004986033E+05,
2460672.500000000, A.D. 2024-Dec-28 00:00:00.0000, 4.148860614244772E+08, 1.815004849765024E+08, -3.027672408677861E+05,
2460679.500000000, A.D. 2025-Jan-04 00:00:00.0000, 4.107519880653318E+08, 1.905898308160122E+08, -8.643766599817127E+05,
2460686.500000000, A.D. 2025-Jan-11 00:00:00.0000, 4.064030956155125E+08, 1.995795481970744E+08, -1.425534767910659E+06,
2460693.500000000, A.D. 2025-Jan-18 00:00:00.0000, 4.018415887808908E+08, 2.084649035987775E+08, -1.985947834236324E+06,
2460700.500000000, A.D. 2025-Jan-25 00:00:00.0000, 3.970697629902983E+08, 2.172412038423170E+08, -2.545322232952803E+06,
2460707.500000000, A.D. 2025-Feb-01 00:00:00.0000, 3.920900039614246E+08, 2.259037972496409E+08, -3.103364489322305E+06,
2460714.500000000, A.D. 2025-Feb-08 00:00:00.0000, 3.869047872608897E+08, 2.344480747264084E+08, -3.659781331397146E+06,
$$EOE